CCSDS_OMM_VERS = 2.0
CREATION_DATE  = 
ORIGINATOR     = 

OBJECT_NAME    = STARLINK-37082
OBJECT_ID      = 2026-050R
CENTER_NAME    = EARTH
REF_FRAME      = TEME
TIME_SYSTEM    = UTC
MEAN_ELEMENT_THEORY = SGP/SGP4

EPOCH          = 2026-03-30T17:30:51.181056
MEAN_MOTION    = 15.80991716
ECCENTRICITY   = .00007816
INCLINATION    = 53.1588
RA_OF_ASC_NODE = 176.2651
ARG_OF_PERICENTER = 123.9702
MEAN_ANOMALY   = 236.1395

EPHEMERIS_TYPE = 0
CLASSIFICATION_TYPE = U
NORAD_CAT_ID   = 68182
ELEMENT_SET_NO = 999
REV_AT_EPOCH   = 380
BSTAR          = .13395481E-2
MEAN_MOTION_DOT = .273735E-2
MEAN_MOTION_DDOT = 0

CCSDS_OMM_VERS = 2.0
CREATION_DATE  = 
ORIGINATOR     = 

OBJECT_NAME    = STARLINK-37102
OBJECT_ID      = 2026-050S
CENTER_NAME    = EARTH
REF_FRAME      = TEME
TIME_SYSTEM    = UTC
MEAN_ELEMENT_THEORY = SGP/SGP4

EPOCH          = 2026-03-30T17:29:46.446720
MEAN_MOTION    = 15.80985810
ECCENTRICITY   = .00008072
INCLINATION    = 53.1589
RA_OF_ASC_NODE = 176.2600
ARG_OF_PERICENTER = 81.1620
MEAN_ANOMALY   = 278.9494

EPHEMERIS_TYPE = 0
CLASSIFICATION_TYPE = U
NORAD_CAT_ID   = 68183
ELEMENT_SET_NO = 999
REV_AT_EPOCH   = 380
BSTAR          = .13303241E-2
MEAN_MOTION_DOT = .271706E-2
MEAN_MOTION_DDOT = 0

CCSDS_OMM_VERS = 2.0
CREATION_DATE  = 
ORIGINATOR     = 

OBJECT_NAME    = STARLINK-36964
OBJECT_ID      = 2026-050T
CENTER_NAME    = EARTH
REF_FRAME      = TEME
TIME_SYSTEM    = UTC
MEAN_ELEMENT_THEORY = SGP/SGP4

EPOCH          = 2026-03-30T17:28:41.836800
MEAN_MOTION    = 15.80974129
ECCENTRICITY   = .0001115
INCLINATION    = 53.1589
RA_OF_ASC_NODE = 176.2556
ARG_OF_PERICENTER = 82.4238
MEAN_ANOMALY   = 277.6911

EPHEMERIS_TYPE = 0
CLASSIFICATION_TYPE = U
NORAD_CAT_ID   = 68184
ELEMENT_SET_NO = 999
REV_AT_EPOCH   = 380
BSTAR          = .11692548E-2
MEAN_MOTION_DOT = .237642E-2
MEAN_MOTION_DDOT = 0

CCSDS_OMM_VERS = 2.0
CREATION_DATE  = 
ORIGINATOR     = 

OBJECT_NAME    = STARLINK-37061
OBJECT_ID      = 2026-050U
CENTER_NAME    = EARTH
REF_FRAME      = TEME
TIME_SYSTEM    = UTC
MEAN_ELEMENT_THEORY = SGP/SGP4

EPOCH          = 2026-03-30T17:27:36.758592
MEAN_MOTION    = 15.81003754
ECCENTRICITY   = .00008548
INCLINATION    = 53.1591
RA_OF_ASC_NODE = 176.2501
ARG_OF_PERICENTER = 98.4102
MEAN_ANOMALY   = 261.7018

EPHEMERIS_TYPE = 0
CLASSIFICATION_TYPE = U
NORAD_CAT_ID   = 68185
ELEMENT_SET_NO = 999
REV_AT_EPOCH   = 380
BSTAR          = .14685482E-2
MEAN_MOTION_DOT = .301302E-2
MEAN_MOTION_DDOT = 0

CCSDS_OMM_VERS = 2.0
CREATION_DATE  = 
ORIGINATOR     = 

OBJECT_NAME    = STARLINK-37079
OBJECT_ID      = 2026-050V
CENTER_NAME    = EARTH
REF_FRAME      = TEME
TIME_SYSTEM    = UTC
MEAN_ELEMENT_THEORY = SGP/SGP4

EPOCH          = 2026-03-30T17:26:32.134848
MEAN_MOTION    = 15.80985577
ECCENTRICITY   = .0001221
INCLINATION    = 53.1593
RA_OF_ASC_NODE = 176.2454
ARG_OF_PERICENTER = 64.2168
MEAN_ANOMALY   = 295.8980

EPHEMERIS_TYPE = 0
CLASSIFICATION_TYPE = U
NORAD_CAT_ID   = 68186
ELEMENT_SET_NO = 999
REV_AT_EPOCH   = 380
BSTAR          = .13799827E-2
MEAN_MOTION_DOT = .282214E-2
MEAN_MOTION_DDOT = 0

CCSDS_OMM_VERS = 2.0
CREATION_DATE  = 
ORIGINATOR     = 

OBJECT_NAME    = STARLINK-37006
OBJECT_ID      = 2026-050W
CENTER_NAME    = EARTH
REF_FRAME      = TEME
TIME_SYSTEM    = UTC
MEAN_ELEMENT_THEORY = SGP/SGP4

EPOCH          = 2026-03-30T17:25:27.325344
MEAN_MOTION    = 15.81006022
ECCENTRICITY   = .00014395
INCLINATION    = 53.1592
RA_OF_ASC_NODE = 176.2402
ARG_OF_PERICENTER = 42.7146
MEAN_ANOMALY   = 317.3989

EPHEMERIS_TYPE = 0
CLASSIFICATION_TYPE = U
NORAD_CAT_ID   = 68187
ELEMENT_SET_NO = 999
REV_AT_EPOCH   = 380
BSTAR          = .16673047E-2
MEAN_MOTION_DOT = .34392E-2
MEAN_MOTION_DDOT = 0

CCSDS_OMM_VERS = 2.0
CREATION_DATE  = 
ORIGINATOR     = 

OBJECT_NAME    = STARLINK-36340
OBJECT_ID      = 2026-050X
CENTER_NAME    = EARTH
REF_FRAME      = TEME
TIME_SYSTEM    = UTC
MEAN_ELEMENT_THEORY = SGP/SGP4

EPOCH          = 2026-03-30T17:24:22.561632
MEAN_MOTION    = 15.80967519
ECCENTRICITY   = .00011744
INCLINATION    = 53.1594
RA_OF_ASC_NODE = 176.2349
ARG_OF_PERICENTER = 81.1795
MEAN_ANOMALY   = 278.9361

EPHEMERIS_TYPE = 0
CLASSIFICATION_TYPE = U
NORAD_CAT_ID   = 68188
ELEMENT_SET_NO = 999
REV_AT_EPOCH   = 370
BSTAR          = .11393248E-2
MEAN_MOTION_DOT = .231298E-2
MEAN_MOTION_DDOT = 0

CCSDS_OMM_VERS = 2.0
CREATION_DATE  = 
ORIGINATOR     = 

OBJECT_NAME    = STARLINK-36305
OBJECT_ID      = 2026-050Y
CENTER_NAME    = EARTH
REF_FRAME      = TEME
TIME_SYSTEM    = UTC
MEAN_ELEMENT_THEORY = SGP/SGP4

EPOCH          = 2026-03-30T17:23:17.871360
MEAN_MOTION    = 15.80979217
ECCENTRICITY   = .00014367
INCLINATION    = 53.1594
RA_OF_ASC_NODE = 176.2301
ARG_OF_PERICENTER = 69.6059
MEAN_ANOMALY   = 290.5118

EPHEMERIS_TYPE = 0
CLASSIFICATION_TYPE = U
NORAD_CAT_ID   = 68189
ELEMENT_SET_NO = 999
REV_AT_EPOCH   = 370
BSTAR          = .13677284E-2
MEAN_MOTION_DOT = .279531E-2
MEAN_MOTION_DDOT = 0

CCSDS_OMM_VERS = 2.0
CREATION_DATE  = 
ORIGINATOR     = 

OBJECT_NAME    = STARLINK-37071
OBJECT_ID      = 2026-050Z
CENTER_NAME    = EARTH
REF_FRAME      = TEME
TIME_SYSTEM    = UTC
MEAN_ELEMENT_THEORY = SGP/SGP4

EPOCH          = 2026-03-30T17:21:08.233344
MEAN_MOTION    = 15.80954804
ECCENTRICITY   = .00012017
INCLINATION    = 53.1595
RA_OF_ASC_NODE = 176.2201
ARG_OF_PERICENTER = 84.4155
MEAN_ANOMALY   = 275.7005

EPHEMERIS_TYPE = 0
CLASSIFICATION_TYPE = U
NORAD_CAT_ID   = 68190
ELEMENT_SET_NO = 999
REV_AT_EPOCH   = 380
BSTAR          = .10341336E-2
MEAN_MOTION_DOT = .209213E-2
MEAN_MOTION_DDOT = 0

CCSDS_OMM_VERS = 2.0
CREATION_DATE  = 
ORIGINATOR     = 

OBJECT_NAME    = STARLINK-37091
OBJECT_ID      = 2026-050AA
CENTER_NAME    = EARTH
REF_FRAME      = TEME
TIME_SYSTEM    = UTC
MEAN_ELEMENT_THEORY = SGP/SGP4

EPOCH          = 2026-03-30T17:20:03.430752
MEAN_MOTION    = 15.80992921
ECCENTRICITY   = .00015331
INCLINATION    = 53.1592
RA_OF_ASC_NODE = 176.2146
ARG_OF_PERICENTER = 72.6588
MEAN_ANOMALY   = 287.4602

EPHEMERIS_TYPE = 0
CLASSIFICATION_TYPE = U
NORAD_CAT_ID   = 68191
ELEMENT_SET_NO = 999
REV_AT_EPOCH   = 380
BSTAR          = .15066684E-2
MEAN_MOTION_DOT = .309269E-2
MEAN_MOTION_DDOT = 0

CCSDS_OMM_VERS = 2.0
CREATION_DATE  = 
ORIGINATOR     = 

OBJECT_NAME    = STARLINK-37098
OBJECT_ID      = 2026-050AB
CENTER_NAME    = EARTH
REF_FRAME      = TEME
TIME_SYSTEM    = UTC
MEAN_ELEMENT_THEORY = SGP/SGP4

EPOCH          = 2026-03-30T17:18:58.618656
MEAN_MOTION    = 15.80926851
ECCENTRICITY   = .00010146
INCLINATION    = 53.1596
RA_OF_ASC_NODE = 176.2094
ARG_OF_PERICENTER = 55.2905
MEAN_ANOMALY   = 304.8213

EPHEMERIS_TYPE = 0
CLASSIFICATION_TYPE = U
NORAD_CAT_ID   = 68192
ELEMENT_SET_NO = 999
REV_AT_EPOCH   = 380
BSTAR          = .68739373E-3
MEAN_MOTION_DOT = .137491E-2
MEAN_MOTION_DDOT = 0

CCSDS_OMM_VERS = 2.0
CREATION_DATE  = 
ORIGINATOR     = 

OBJECT_NAME    = STARLINK-37090
OBJECT_ID      = 2026-050AC
CENTER_NAME    = EARTH
REF_FRAME      = TEME
TIME_SYSTEM    = UTC
MEAN_ELEMENT_THEORY = SGP/SGP4

EPOCH          = 2026-03-30T17:16:49.102464
MEAN_MOTION    = 15.80964123
ECCENTRICITY   = .00014565
INCLINATION    = 53.1596
RA_OF_ASC_NODE = 176.1990
ARG_OF_PERICENTER = 56.1093
MEAN_ANOMALY   = 304.0068

EPHEMERIS_TYPE = 0
CLASSIFICATION_TYPE = U
NORAD_CAT_ID   = 68193
ELEMENT_SET_NO = 999
REV_AT_EPOCH   = 380
BSTAR          = .11699434E-2
MEAN_MOTION_DOT = .237673E-2
MEAN_MOTION_DDOT = 0

CCSDS_OMM_VERS = 2.0
CREATION_DATE  = 
ORIGINATOR     = 

OBJECT_NAME    = STARLINK-37093
OBJECT_ID      = 2026-050AD
CENTER_NAME    = EARTH
REF_FRAME      = TEME
TIME_SYSTEM    = UTC
MEAN_ELEMENT_THEORY = SGP/SGP4

EPOCH          = 2026-03-30T17:22:12.794016
MEAN_MOTION    = 15.80990303
ECCENTRICITY   = .0001131
INCLINATION    = 53.1594
RA_OF_ASC_NODE = 176.2249
ARG_OF_PERICENTER = 77.3353
MEAN_ANOMALY   = 282.7796

EPHEMERIS_TYPE = 0
CLASSIFICATION_TYPE = U
NORAD_CAT_ID   = 68194
ELEMENT_SET_NO = 999
REV_AT_EPOCH   = 380
BSTAR          = .13304333E-2
MEAN_MOTION_DOT = .271783E-2
MEAN_MOTION_DDOT = 0

CCSDS_OMM_VERS = 2.0
CREATION_DATE  = 
ORIGINATOR     = 

OBJECT_NAME    = STARLINK-37058
OBJECT_ID      = 2026-050AE
CENTER_NAME    = EARTH
REF_FRAME      = TEME
TIME_SYSTEM    = UTC
MEAN_ELEMENT_THEORY = SGP/SGP4

EPOCH          = 2026-03-30T17:17:53.724480
MEAN_MOTION    = 15.80970997
ECCENTRICITY   = .00011776
INCLINATION    = 53.1595
RA_OF_ASC_NODE = 176.2041
ARG_OF_PERICENTER = 76.1058
MEAN_ANOMALY   = 284.0096

EPHEMERIS_TYPE = 0
CLASSIFICATION_TYPE = U
NORAD_CAT_ID   = 68195
ELEMENT_SET_NO = 999
REV_AT_EPOCH   = 224
BSTAR          = .12097835E-2
MEAN_MOTION_DOT = .246111E-2
MEAN_MOTION_DDOT = 0

CCSDS_OMM_VERS = 2.0
CREATION_DATE  = 
ORIGINATOR     = 

OBJECT_NAME    = YAOGAN-50 02
OBJECT_ID      = 2026-051A
CENTER_NAME    = EARTH
REF_FRAME      = TEME
TIME_SYSTEM    = UTC
MEAN_ELEMENT_THEORY = SGP/SGP4

EPOCH          = 2026-03-30T22:49:43.812192
MEAN_MOTION    = 13.83266293
ECCENTRICITY   = .00007964
INCLINATION    = 141.9868
RA_OF_ASC_NODE = 309.7706
ARG_OF_PERICENTER = 268.7395
MEAN_ANOMALY   = 91.3234

EPHEMERIS_TYPE = 0
CLASSIFICATION_TYPE = U
NORAD_CAT_ID   = 68196
ELEMENT_SET_NO = 999
REV_AT_EPOCH   = 215
BSTAR          = .7194833E-4
MEAN_MOTION_DOT = .266E-5
MEAN_MOTION_DDOT = 0

